[{"OBJECT_NAME":"GOES 19","OBJECT_ID":"2024-119A","EPOCH":"2026-04-05T19:13:58.846656","MEAN_MOTION":1.00271085,"ECCENTRICITY":9.75e-5,"INCLINATION":0.0442,"RA_OF_ASC_NODE":41.6631,"ARG_OF_PERICENTER":16.5716,"MEAN_ANOMALY":349.1621,"EPHEMERIS_TYPE":0,"CLASSIFICATION_TYPE":"U","NORAD_CAT_ID":60133,"ELEMENT_SET_NO":999,"REV_AT_EPOCH":623,"BSTAR":0,"MEAN_MOTION_DOT":-2.47e-6,"MEAN_MOTION_DDOT":0},{"OBJECT_NAME":"FENGYUN 3H","OBJECT_ID":"2025-219A","EPOCH":"2026-04-05T19:31:20.070336","MEAN_MOTION":14.19940283,"ECCENTRICITY":7.02e-5,"INCLINATION":98.6721,"RA_OF_ASC_NODE":38.0096,"ARG_OF_PERICENTER":69.7596,"MEAN_ANOMALY":290.3656,"EPHEMERIS_TYPE":0,"CLASSIFICATION_TYPE":"U","NORAD_CAT_ID":65815,"ELEMENT_SET_NO":999,"REV_AT_EPOCH":2711,"BSTAR":8.4845e-5,"MEAN_MOTION_DOT":1.37e-6,"MEAN_MOTION_DDOT":0}]
