GOES 19                 
1 60133U 24119A   26095.80137554 -.00000247  00000+0  00000+0 0  9997
2 60133   0.0442  41.6631 0000975  16.5716 349.1621  1.00271085  6234
FENGYUN 3H              
1 65815U 25219A   26095.81342674  .00000137  00000+0  84845-4 0  9994
2 65815  98.6721  38.0096 0000702  69.7596 290.3656 14.19940283 27110
